IRIDIUM 7 [-]           
1 24793U 97020B   23227.14514127  .00000377  00000+0  12607-3 0  9999
2 24793  86.3931  98.3938 0002153  91.4434 268.7009 14.34864744375713
IRIDIUM 4 [-]           
1 24796U 97020E   23227.13803910  .00000449  00000+0  14842-3 0  9995
2 24796  86.3923  95.7193 0001988  87.1968 272.9456 14.35767290376038
IRIDIUM 914 [-]         
1 24836U 97030A   23227.21983270  .00000466  00000+0  14305-3 0  9991
2 24836  86.3916 106.2500 0000429  41.2578 318.8653 14.39559310372516
IRIDIUM 16 [-]          
1 24841U 97030F   23227.72001990  .00000458  00000+0  14667-3 0  9995
2 24841  86.4054 127.2221 0004250  96.9656 263.2025 14.37458631370762
IRIDIUM 911 [-]         
1 24842U 97030G   23227.24717894  .00000613  00000+0  16644-3 0  9990
2 24842  86.4480 126.7978 0014525 166.9997 193.1582 14.45958218377919
IRIDIUM 17 [-]          
1 24870U 97034B   23227.07809436  .00000539  00000+0  17700-3 0  9991
2 24870  86.4020 157.1342 0003861  72.4983 287.6636 14.36557258367052
IRIDIUM 920 [-]         
1 24871U 97034C   23227.04572522  .00000519  00000+0  15760-3 0  9994
2 24871  86.4013 137.9748 0013136 129.8890 230.3466 14.40272110370057
